GLOBALSTAR M069         
1 31573U 07020C   26187.74161123 -.00000071  00000+0  20037-3 0  9990
2 31573  51.9995 196.7792 0001876 191.2816 340.2200 12.23472102881192
GLOBALSTAR M072         
1 31574U 07020D   26187.03262338 -.00000075  00000+0  12179-3 0  9995
2 31574  51.9943  50.0744 0001604  16.7469 150.6245 11.91658629877224
GLOBALSTAR M066         
1 32265U 07048C   26187.72463889 -.00000046  00000+0  41400-3 0  9990
2 32265  51.9608   1.8266 0005643  85.1113 288.6771 12.30388599862631
GLOBALSTAR M079         
1 37188U 10054A   26187.08397541 -.00000097  00000+0  35676-4 0  9995
2 37188  52.0046  51.1460 0001063  62.2784 102.1981 12.62266454724937
GLOBALSTAR M074         
1 37189U 10054B   26187.03398463 -.00000098  00000+0  30384-4 0  9997
2 37189  52.0026  50.5602 0000832  79.0429  98.2745 12.62261915725539
GLOBALSTAR M076         
1 37190U 10054C   26187.05751551 -.00000093  00000+0  58162-4 0  9991
2 37190  52.0038  50.6936 0001054  75.0656  89.1324 12.62262090725256
GLOBALSTAR M077         
1 37191U 10054D   26187.23461645 -.00000064  00000+0  25917-3 0  9993
2 37191  51.9940 130.9494 0002413 207.8288 300.3196 11.67547921723362
GLOBALSTAR M075         
1 37192U 10054E   26187.23032657 -.00000078  00000+0  14613-3 0  9997
2 37192  51.9945  92.2105 0000597  50.6877 119.4926 12.62267716724342
GLOBALSTAR M073         
1 37193U 10054F   26187.75113979 -.00000094  00000+0  54222-4 0  9991
2 37193  52.0074   4.7402 0001109  84.5846 291.7864 12.62266881726404
GLOBALSTAR M083         
1 37739U 11033A   26187.54054336 -.00000082  00000+0  12080-3 0  9995
2 37739  51.9876 313.5840 0000902  96.2727 343.9772 12.62263900695393
GLOBALSTAR M088         
1 37740U 11033B   26187.27669402 -.00000099  00000+0  24941-4 0  9991
2 37740  52.0187 220.8624 0000250 154.6633 284.6184 12.62269262690900
GLOBALSTAR M091         
1 37741U 11033C   26187.38384179 -.00000102  00000+0  12405-4 0  9996
2 37741  51.9966 183.4720 0000190 359.9947 147.1499 12.62264143691700
GLOBALSTAR M085         
1 37742U 11033D   26187.21035332 -.00000086  00000+0  97885-4 0  9999
2 37742  52.0113 135.3081 0000572  21.1784 117.2647 12.62264232692190
GLOBALSTAR M081         
1 37743U 11033E   26187.23711119 -.00000090  00000+0  75192-4 0  9998
2 37743  51.9943 137.6411 0000471  43.3008  96.5737 12.62265319692348
GLOBALSTAR M089         
1 37744U 11033F   26187.89641043 -.00000095  00000+0  49235-4 0  9993
2 37744  51.9930  89.7894 0000619  82.1737 356.1485 12.62267524693279
GLOBALSTAR M084         
1 38040U 11080A   26187.67763269 -.00000091  00000+0  69683-4 0  9991
2 38040  52.0030 317.9472 0001006 117.5758 346.0140 12.62267775671222
GLOBALSTAR M080         
1 38041U 11080B   26187.56484193 -.00000092  00000+0  63730-4 0  9994
2 38041  52.0077 320.0153 0000417  84.0224 356.8185 12.62265488671335
GLOBALSTAR M082         
1 38042U 11080C   26187.58642197 -.00000095  00000+0  46668-4 0  9991
2 38042  52.0078 275.4537 0000302 112.4780 356.2185 12.62263903672045
GLOBALSTAR M092         
1 38043U 11080D   26187.02001582 -.00000081  00000+0  12781-3 0  9991
2 38043  52.0098   7.5744 0000843  89.6289  83.2293 12.62267535670423
GLOBALSTAR M090         
1 38044U 11080E   26187.53447406 -.00000087  00000+0  92001-4 0  9997
2 38044  52.0122 269.5743 0000506 106.9061   4.4358 12.62252898672153
GLOBALSTAR M086         
1 38045U 11080F   26187.38990023 -.00000080  00000+0  13525-3 0  9995
2 38045  51.9895 269.9117 0001638  98.9551 337.9849 12.62287729672081
GLOBALSTAR M097         
1 39072U 13005A   26187.16709501 -.00000104  00000+0 -90839-6 0  9994
2 39072  52.0014 185.5594 0000221  39.5863 320.5020 12.62271324619302
GLOBALSTAR M093         
1 39073U 13005B   26187.69457830 -.00000095  00000+0  49264-4 0  9990
2 39073  52.0076 177.3072 0000434  33.6957 326.3938 12.62266212619320
GLOBALSTAR M094         
1 39074U 13005C   26187.14013876 -.00000090  00000+0  75598-4 0  9993
2 39074  51.9958  93.0930 0000860  45.9390 314.1547 12.62268515620865
GLOBALSTAR M096         
1 39075U 13005D   26187.23285162 -.00000092  00000+0  63037-4 0  9990
2 39075  52.0052 141.6262 0000526  24.7774 335.3118 12.62265613619796
GLOBALSTAR M078         
1 39076U 13005E   26187.28513273 -.00000104  00000+0  11266-5 0  9995
2 39076  51.9848 225.4530 0000632 310.0084  50.0727 12.62259978618423
GLOBALSTAR M095         
1 39077U 13005F   26187.47020106 -.00000098  00000+0  34778-4 0  9999
2 39077  52.0056 222.5205 0000210   2.5052 357.5816 12.62263954618304
GLOBALSTAR M087         
1 52888U 22064A   26187.64171897 -.00000104  00000+0 -20116-5 0  9993
2 52888  52.0012   3.2245 0000950  72.9259 287.1711 12.62269292193592
